NORAD_CAT_ID,OBJECT_NAME,OBJECT_TYPE,EPOCH,MEAN_MOTION,ECCENTRICITY,INCLINATION,RA_OF_ASC_NODE,ARG_OF_PERICENTER,MEAN_ANOMALY,BSTAR,MEAN_MOTION_DOT,MEAN_MOTION_DDOT,TLE_LINE0,TLE_LINE1,TLE_LINE2,SEMIMAJOR_AXIS,PERIOD,APOGEE,PERIGEE,DECAYED
53966.0,STARLINK-4635,PAYLOAD,2024-02-02 09:00:42,15.08805201,0.0001855,53.217,64.3072,104.0861,256.0337,0.00050287,7.717e-05,0.0,0 STARLINK-4635,1 53966U 22125C   24033.37549103  .00007717  00000-0  50287-3 0  9992,2 53966  53.2170  64.3072 0001855 104.0861 256.0337 15.08805201 73703,6917.987,95.44,541.135,538.568,0.0
53966.0,STARLINK-4635,PAYLOAD,2024-02-02 12:11:28,15.08842563,0.0001652,53.2174,63.7145,102.2425,257.8753,-1.426e-05,-5.15e-06,0.0,0 STARLINK-4635,1 53966U 22125C   24033.50796533 -.00000515  00000-0 -14260-4 0  9991,2 53966  53.2174  63.7145 0001652 102.2425 257.8753 15.08842563 73659,6917.873,95.437,540.88,538.595,0.0
53966.0,STARLINK-4635,PAYLOAD,2024-02-03 00:54:33,15.08831494,0.000171,53.2174,61.3368,109.915,250.2026,2.208e-05,6.3e-07,0.0,0 STARLINK-4635,1 53966U 22125C   24034.03789222  .00000063  00000-0  22080-4 0  9992,2 53966  53.2174  61.3368 0001710 109.9150 250.2026 15.08831494 73802,6917.906,95.438,540.954,538.588,0.0
53966.0,STARLINK-4635,PAYLOAD,2024-02-03 08:51:29,15.08814429,0.0001682,53.2176,59.8512,98.9415,261.1768,0.00027254,4.049e-05,0.0,0 STARLINK-4635,1 53966U 22125C   24034.36909667  .00004049  00000-0  27254-3 0  9990,2 53966  53.2176  59.8512 0001682  98.9415 261.1768 15.08814429 73786,6917.959,95.439,540.987,538.66,0.0
53966.0,STARLINK-4635,PAYLOAD,2024-02-03 18:23:48,15.08836016,0.000164,53.2178,58.067,83.9603,276.1576,3.607e-05,2.86e-06,0.0,0 STARLINK-4635,1 53966U 22125C   24034.76653344  .00000286  00000-0  36070-4 0  9998,2 53966  53.2178  58.0670 0001640  83.9603 276.1576 15.08836016 73847,6917.893,95.438,540.892,538.623,0.0
53966.0,STARLINK-4635,PAYLOAD,2024-02-04 00:45:21,15.08782294,0.0001865,53.2181,56.8788,96.289,263.8315,0.00069475,0.00010769,0.0,0 STARLINK-4635,1 53966U 22125C   24035.03149449  .00010769  00000-0  69475-3 0  9996,2 53966  53.2181  56.8788 0001865  96.2890 263.8315 15.08782294 73955,6918.057,95.441,541.212,538.632,0.0
53966.0,STARLINK-4635,PAYLOAD,2024-02-04 08:42:16,15.08796629,0.0001842,53.2179,55.3927,94.9782,265.142,0.00072321,0.00011227,0.0,0 STARLINK-4635,1 53966U 22125C   24035.36269631  .00011227  00000-0  72321-3 0  9992,2 53966  53.2179  55.3927 0001842  94.9782 265.1420 15.08796629 74007,6918.013,95.44,541.152,538.604,0.0
53966.0,STARLINK-4635,PAYLOAD,2024-02-05 08:33:03,15.08840973,0.0001584,53.2173,50.932,85.7316,274.3857,0.00010327,1.356e-05,0.0,0 STARLINK-4635,1 53966U 22125C   24036.35629037  .00001356  00000-0  10327-3 0  9992,2 53966  53.2173  50.9320 0001584  85.7316 274.3857 15.08840973 74157,6917.877,95.437,540.838,538.647,0.0
53966.0,STARLINK-4635,PAYLOAD,2024-02-05 18:05:22,15.08839221,0.0001559,53.2178,49.1491,86.4267,273.6903,6.3594e-05,7.24e-06,0.0,0 STARLINK-4635,1 53966U 22125C   24036.75373287  .00000724  00000-0  63594-4 0  9992,2 53966  53.2178  49.1491 0001559  86.4267 273.6903 15.08839221 74143,6917.883,95.438,540.826,538.669,0.0
53966.0,STARLINK-4635,PAYLOAD,2024-02-06 00:26:55,15.08835803,0.0001389,53.2167,47.9613,87.7744,272.3407,1.7772e-05,-5e-08,0.0,0 STARLINK-4635,1 53966U 22125C   24037.01869629 -.00000005  00000-0  17772-4 0  9992,2 53966  53.2167  47.9613 0001389  87.7744 272.3407 15.08835803 74257,6917.893,95.438,540.719,538.797,0.0
53966.0,STARLINK-4635,PAYLOAD,2024-02-06 06:48:28,15.08834399,0.0001488,53.2166,46.7697,83.5178,276.5984,-3.4358e-05,-8.35e-06,0.0,0 STARLINK-4635,1 53966U 22125C   24037.28365995 -.00000835  00000-0 -34358-4 0  9999,2 53966  53.2166  46.7697 0001488  83.5178 276.5984 15.08834399 74222,6917.898,95.438,540.792,538.733,0.0
53966.0,STARLINK-4635,PAYLOAD,2024-02-07 00:17:42,15.08846215,0.0001543,53.2173,43.4982,100.4214,259.6952,2.2091e-05,6.4e-07,0.0,0 STARLINK-4635,1 53966U 22125C   24038.01229185  .00000064  00000-0  22091-4 0  9994,2 53966  53.2173  43.4982 0001543 100.4214 259.6952 15.08846215 74400,6917.861,95.437,540.794,538.659,0.0
53966.0,STARLINK-4635,PAYLOAD,2024-02-07 09:49:59,15.08855586,0.0001574,53.217,41.7131,98.2549,261.8622,0.00011471,1.539e-05,0.0,0 STARLINK-4635,1 53966U 22125C   24038.40972173  .00001539  00000-0  11471-3 0  9996,2 53966  53.2170  41.7131 0001574  98.2549 261.8622 15.08855586 74469,6917.833,95.437,540.787,538.609,0.0
53966.0,STARLINK-4635,PAYLOAD,2024-02-07 17:46:57,15.0883604,0.000181,53.2166,40.2274,87.8299,272.29,3.1317e-05,2.1e-06,0.0,0 STARLINK-4635,1 53966U 22125C   24038.74093768  .00000210  00000-0  31317-4 0  9994,2 53966  53.2166  40.2274 0001810  87.8299 272.2900 15.08836040 74510,6917.892,95.438,541.01,538.505,0.0
53966.0,STARLINK-4635,PAYLOAD,2024-02-08 09:40:48,15.0884194,0.0001779,53.2174,37.2512,106.0047,254.1141,0.00011385,1.524e-05,0.0,0 STARLINK-4635,1 53966U 22125C   24039.40333546  .00001524  00000-0  11385-3 0  9990,2 53966  53.2174  37.2512 0001779 106.0047 254.1141 15.08841940 74543,6917.874,95.437,540.97,538.509,0.0
53966.0,STARLINK-4635,PAYLOAD,2024-02-09 03:10:02,15.08845451,0.0001768,53.2168,33.9794,106.8277,253.291,1.953e-05,2.3e-07,0.0,0 STARLINK-4635,1 53966U 22125C   24040.13197392  .00000023  00000-0  19530-4 0  9993,2 53966  53.2168  33.9794 0001768 106.8277 253.2910 15.08845451 74727,6917.864,95.437,540.952,538.506,0.0
53966.0,STARLINK-4635,PAYLOAD,2024-02-09 04:45:25,15.08846299,0.0001791,53.2171,33.6823,105.5938,254.5251,4.0135e-05,3.51e-06,0.0,0 STARLINK-4635,1 53966U 22125C   24040.19821356  .00000351  00000-0  40135-4 0  9992,2 53966  53.2171  33.6823 0001791 105.5938 254.5251 15.08846299 74663,6917.861,95.437,540.965,538.487,0.0
53966.0,STARLINK-4635,PAYLOAD,2024-02-10 03:00:50,15.08834861,0.0001719,53.2173,29.522,100.3566,259.762,5.5915e-05,6.02e-06,0.0,0 STARLINK-4635,1 53966U 22125C   24041.12558164  .00000602  00000-0  55915-4 0  9991,2 53966  53.2173  29.5220 0001719 100.3566 259.7620 15.08834861 74872,6917.896,95.438,540.95,538.572,0.0
53966.0,STARLINK-4635,PAYLOAD,2024-02-10 09:22:22,15.0883842,0.0001685,53.2171,28.3298,103.0812,257.0368,5.977e-05,6.63e-06,0.0,0 STARLINK-4635,1 53966U 22125C   24041.39054023  .00000663  00000-0  59770-4 0  9995,2 53966  53.2171  28.3298 0001685 103.0812 257.0368 15.08838420 74840,6917.885,95.438,540.916,538.585,0.0
53966.0,STARLINK-4635,PAYLOAD,2024-02-11 04:27:00,15.08838666,0.0001683,53.2182,24.7602,112.83,247.287,2.3779e-05,9e-07,0.0,0 STARLINK-4635,1 53966U 22125C   24042.18542473  .00000090  00000-0  23779-4 0  9998,2 53966  53.2182  24.7602 0001683 112.8300 247.2870 15.08838666 75032,6917.884,95.438,540.914,538.585,0.0
53966.0,STARLINK-4635,PAYLOAD,2024-02-11 21:56:15,15.08839891,0.000146,53.218,21.4882,104.3716,255.7438,0.00012534,1.707e-05,0.0,0 STARLINK-4635,1 53966U 22125C   24042.91406336  .00001707  00000-0  12534-3 0  9998,2 53966  53.2180  21.4882 0001460 104.3716 255.7438 15.08839891 75073,6917.881,95.438,540.756,538.736,0.0
53966.0,STARLINK-4635,PAYLOAD,2024-02-12 02:42:23,15.08849575,0.0001988,53.2186,20.6001,125.6886,234.4291,0.00020951,3.049e-05,0.0,0 STARLINK-4635,1 53966U 22125C   24043.11277532  .00003049  00000-0  20951-3 0  9998,2 53966  53.2186  20.6001 0001988 125.6886 234.4291 15.08849575 75174,6917.851,95.437,541.091,538.341,0.0
53966.0,STARLINK-4635,PAYLOAD,2024-02-12 05:53:09,15.08862065,0.00014,53.2173,20.0016,100.0737,260.0413,0.00041876,6.387e-05,0.0,0 STARLINK-4635,1 53966U 22125C   24043.24525132  .00006387  00000-0  41876-3 0  9991,2 53966  53.2173  20.0016 0001400 100.0737 260.0413 15.08862065 75193,6917.813,95.436,540.646,538.709,0.0
53966.0,STARLINK-4635,PAYLOAD,2024-02-13 04:08:34,15.08843585,0.0001545,53.2181,15.8461,81.2652,278.8515,4.38e-05,4.09e-06,0.0,0 STARLINK-4635,1 53966U 22125C   24044.17261980  .00000409  00000-0  43800-4 0  9991,2 53966  53.2181  15.8461 0001545  81.2652 278.8515 15.08843585 75336,6917.869,95.437,540.803,538.666,0.0
53966.0,STARLINK-4635,PAYLOAD,2024-02-13 07:19:20,15.08850939,0.0001533,53.2181,15.2473,86.2521,273.8646,0.00018398,2.642e-05,0.0,0 STARLINK-4635,1 53966U 22125C   24044.30509623  .00002642  00000-0  18398-3 0  9999,2 53966  53.2181  15.2473 0001533  86.2521 273.8646 15.08850939 75285,6917.847,95.437,540.772,538.651,0.0
53966.0,STARLINK-4635,PAYLOAD,2024-02-13 15:16:16,15.08841966,0.0001416,53.2181,13.7593,99.2158,260.8994,5.0911e-05,5.22e-06,0.0,0 STARLINK-4635,1 53966U 22125C   24044.63629907  .00000522  00000-0  50911-4 0  9996,2 53966  53.2181  13.7593 0001416  99.2158 260.8994 15.08841966 75339,6917.874,95.437,540.719,538.76,0.0
53966.0,STARLINK-4635,PAYLOAD,2024-02-14 03:59:20,15.08848904,0.0001357,53.2177,11.3786,97.9557,262.1589,-4.4172e-05,-9.91e-06,0.0,0 STARLINK-4635,1 53966U 22125C   24045.16621274 -.00000991  00000-0 -44172-4 0  9998,2 53966  53.2177  11.3786 0001357  97.9557 262.1589 15.08848904 75417,6917.853,95.437,540.657,538.779,0.0
53966.0,STARLINK-4635,PAYLOAD,2024-02-14 15:07:03,15.08843538,0.0001466,53.2193,9.2998,83.3929,276.723,8.2009e-05,1.018e-05,0.0,0 STARLINK-4635,1 53966U 22125C   24045.62989827  .00001018  00000-0  82009-4 0  9990,2 53966  53.2193   9.2998 0001466  83.3929 276.7230 15.08843538 75556,6917.87,95.437,540.749,538.72,0.0
53966.0,STARLINK-4635,PAYLOAD,2024-02-15 03:50:09,15.08832998,0.0001431,53.2182,6.9219,80.0342,280.0811,-7.7834e-05,-1.526e-05,0.0,0 STARLINK-4635,1 53966U 22125C   24046.15982662 -.00001526  00000-0 -77834-4 0  9995,2 53966  53.2182   6.9219 0001431  80.0342 280.0811 15.08832998 75639,6917.902,95.438,540.757,538.777,0.0
53966.0,STARLINK-4635,PAYLOAD,2024-02-15 21:19:23,15.08834176,0.0001739,53.2183,3.6498,90.7721,269.3471,7.6185e-05,9.24e-06,0.0,0 STARLINK-4635,1 53966U 22125C   24046.88846985  .00000924  00000-0  76185-4 0  9999,2 53966  53.2183   3.6498 0001739  90.7721 269.3471 15.08834176 75679,6917.898,95.438,540.966,538.56,0.0
